ONEWEB-0228             
1 48780U 21045P   24170.59971447 -.00000433  00000+0 -11850-2 0  9997
2 48780  87.9041  44.1682 0002260  80.9692 279.1694 13.15543642148530
